# From MPEC 2021-S45
C/2017 T2 (PANSTARRS),e,57.2295,64.3796,92.9846,1825,0.0000126,0.99911506,0.0000,05/04.8552/2020,2000,g  5.0,4.0
# From MPC114600
C/2017 T3 (ATLAS),e,88.1387,230.1383,246.8270,1173,0.0000245,0.99929664,0.0000,07/18.8441/2018,2000,g 10.0,4.0
# From MPC115882
P/2017 TW13 (Lemmon),e,44.8501,322.2978,119.9443,7.139740,0.0516631,0.70966745,62.8727,10/20.0/2021,2000,g 15.0,2.0
# From MPC114600
C/2017 U2 (Fuls),e,95.3861,149.7059,147.8365,2851,0.0000065,0.99764616,0.0000,08/28.1832/2017,2000,g  9.0,4.0
# From MPC114600
P/2017 U3 (PANSTARRS),e,15.9186,165.1106,296.6198,4.927997,0.0900945,0.09896870,82.8581,10/20.0/2021,2000,g 11.0,4.0
# From MPEC 2021-P47
C/2017 U4 (PANSTARRS),h,09/22.7180/2018,158.2103,245.9326,158.9950,1.001354,7.720422,2000,7.0,4.0
# From MPC114600
C/2017 U5 (PANSTARRS),e,18.9783,163.0862,261.9981,16.88123,0.0142101,0.74422380,19.9126,10/20.0/2021,2000,g 12.0,4.0
# From MPEC 2021-TD0
C/2017 U7 (PANSTARRS),h,09/14.3597/2019,142.5938,276.2463,326.3407,1.000561,6.424653,2000,8.3,2.0
# From MPC114600
C/2017 W2 (Leonard),e,98.1996,312.8389,168.9664,13.63836,0.0195686,0.71045241,28.3573,10/20.0/2021,2000,g 11.0,4.0
# From MPC114601
P/2017 W3 (Gibbs),e,18.1667,210.2576,327.8448,7.839669,0.0449012,0.50689402,59.7075,10/20.0/2021,2000,g 10.5,4.0
# From MPEC 2021-R75
C/2017 X1 (PANSTARRS),e,31.3125,251.1344,283.2522,31.20194,0.0056550,0.85035540,6.9176,10/20.0/2021,2000,g 10.0,4.0
# From MPC117069
C/2017 Y1 (PANSTARRS),e,55.2638,307.5233,134.2656,1751,0.0000135,0.99788239,0.0000,08/31.3171/2017,2000,g 11.5,4.0
# From MPEC 2021-R75
C/2017 Y2 (PANSTARRS),h,11/04.8717/2020,128.4156,65.9948,147.9101,1.000817,4.632594,2000,15.0,4.0
# From MPC111770
P/2017 Y3 (Leonard),e,27.5562,153.8405,67.6143,9.839284,0.0319344,0.86986008,43.0447,10/20.0/2021,2000,g 16.5,4.0
# From MPC114601
C/2018 A1 (PANSTARRS),e,53.6156,336.6619,96.2182,25.09593,0.0078397,0.90392199,11.4475,10/20.0/2021,2000,g 12.5,4.0
# From MPEC 2021-P47
C/2018 A3 (ATLAS),e,139.5368,194.2928,86.3691,425.5225,0.0001123,0.99230188,0.0000,01/12.2058/2019,2000,g  8.5,4.0
# From MPC114601
C/2018 A4 (PANSTARRS),e,3.1488,97.6164,355.9945,12.18994,0.0231580,0.80340724,28.9570,10/20.0/2021,2000,g 14.0,4.0
# From MPC109147
P/2018 A5 (PANSTARRS),e,23.5880,87.8123,359.5222,5.632331,0.0737347,0.52256227,109.7118,10/20.0/2021,2000,g 15.0,4.0
# From MPEC 2021-U31
C/2018 A6 (Gibbs),e,77.0499,340.3795,264.4670,15.18358,0.0166588,0.80120736,13.8227,10/20.0/2021,2000,g  9.0,4.0
# From MPC118841
C/2018 B1 (Lemmon),e,162.4201,133.1908,68.3256,151597,0.0000000,0.99996623,0.0000,03/28.8501/2018,2000,g  9.0,4.0
# From MPC114601
P/2018 C1 (Lemmon-Read),e,5.1163,270.3646,235.7084,5.654016,0.0733109,0.53239817,97.7436,10/20.0/2021,2000,g 13.5,4.0
# From MPC114601
C/2018 C2 (Lemmon),h,06/01.2511/2018,34.4613,91.1720,134.1003,1.000484,1.959825,2000,13.0,4.0
# From MPEC 2021-U31
C/2018 DO4 (Lemmon),e,160.4578,251.3425,176.2289,25.52698,0.0076420,0.90553511,6.0699,10/20.0/2021,2000,g 11.0,4.0
# From MPC114602
C/2018 E1 (ATLAS),e,72.5172,146.8688,299.3477,53.87936,0.0024921,0.94991492,3.1936,10/20.0/2021,2000,g 10.5,4.0
# From MPC114602
C/2018 E2 (Barros),e,97.6766,67.1823,277.4529,3895,0.0000041,0.99899379,0.0000,12/24.0271/2017,2000,g 10.5,4.0
# From MPC114602
C/2018 EN4 (NEOWISE),e,81.8351,136.1308,35.0622,18.14578,0.0127509,0.91975530,15.7141,10/20.0/2021,2000,g 15.0,4.0
# From MPC114602
C/2018 EF9 (Lemmon),e,84.6200,172.5554,72.6217,508.8269,0.0000859,0.99693650,0.0000,05/22.3532/2018,2000,g 18.0,2.0
# From MPEC 2021-R75
C/2018 F1 (Grauer),e,46.0762,177.2755,71.6215,265.9136,0.0002273,0.98873579,0.0000,12/13.2912/2018,2000,g 11.5,4.0
# From MPC110084
C/2018 F3 (Johnson),p,08/15.2314/2017,105.5348,293.0113,2.483172,173.0311,2000,13.0,4.0
# From MPEC 2021-U31
C/2018 F4 (PANSTARRS),h,12/04.0218/2019,78.0873,26.5154,263.2318,1.000963,3.441231,2000,11.0,6.0
# From MPEC 2021-U31
C/2018 F4-A (PANSTARRS),h,12/04.0080/2019,78.0870,26.5159,263.2282,1.000909,3.441092,2000,11.0,6.0
# From MPEC 2021-U31
C/2018 F4-B (PANSTARRS),h,12/03.9431/2019,78.0878,26.5154,263.2132,1.000998,3.440876,2000,11.0,6.0
# From MPC114602
P/2018 H2 (PANSTARRS),e,7.3906,68.3201,119.9433,4.389285,0.1071799,0.54055018,146.5185,10/20.0/2021,2000,g 16.6,2.0
# From MPC114602
C/2018 K1 (Weiland),e,164.1941,260.0844,325.1539,30.08327,0.0059733,0.93740230,7.7175,10/20.0/2021,2000,g 14.9,4.0
# From MPEC 2021-R75
C/2018 KJ3 (Lemmon),e,136.7016,91.6160,217.6752,923.7119,0.0000351,0.99607016,0.0000,09/09.8437/2019,2000,g 12.2,2.0
# From MPC114602
P/2018 L1 (PANSTARRS),e,10.5884,268.6313,18.0156,3.651908,0.1412291,0.48255612,151.4670,10/20.0/2021,2000,g 15.0,4.0
# From MPEC 2021-P47
C/2018 L2 (ATLAS),e,67.3453,243.0197,56.2933,262.0164,0.0002324,0.99345973,0.0000,12/02.6677/2018,2000,g 10.0,4.0
# From MPC114603
P/2018 L4 (PANSTARRS),e,26.6257,145.1510,140.6039,4.942669,0.0896937,0.65985775,105.5054,10/20.0/2021,2000,g 17.5,4.0
# From MPC119996
P/2018 L5 (Leonard),e,2.2081,219.0916,93.8772,3.628256,0.1426124,0.36467916,180.2040,10/20.0/2021,2000,g 14.5,4.0
# From MPC117070
C/2018 M1 (Catalina),e,37.3026,339.4081,14.1880,21.41070,0.0099485,0.93915674,11.9128,10/20.0/2021,2000,g 15.5,4.0
# From MPC112393
C/2018 N1 (NEOWISE),e,159.4380,292.4646,354.6733,368.5964,0.0001393,0.99644371,0.0000,08/02.1124/2018,2000,g 15.5,4.0
# From MPEC 2021-U31
C/2018 N2 (ASASSN),h,11/11.0239/2019,77.5359,25.2270,24.4194,1.000273,3.125235,2000,6.0,4.0
# From MPC114603
C/2018 O1 (ATLAS),e,154.0298,87.6845,162.6400,28.00292,0.0066512,0.94425850,7.6170,10/20.0/2021,2000,g 17.0,4.0
# From MPC114603
P/2018 P3 (PANSTARRS),e,8.9109,59.1687,305.9049,3.005494,0.1891604,0.41680935,209.1522,10/20.0/2021,2000,g 14.5,4.0
# From MPC114603
P/2018 P4 (PANSTARRS),e,23.1093,353.0632,8.2902,6.676403,0.0571334,0.45063041,61.5086,10/20.0/2021,2000,g 12.0,4.0
# From MPEC 2021-P47
C/2018 P5 (PANSTARRS),e,7.2503,216.2283,131.8015,12.81878,0.0214750,0.64273786,20.7337,10/20.0/2021,2000,g 11.0,4.0
# From MPC118841
C/2018 R3 (Lemmon),e,69.7299,324.6425,112.7917,1581,0.0000157,0.99918576,0.0000,06/07.3562/2019,2000,g  9.5,4.0
# From MPC112393
C/2018 R4 (Fuls),e,11.6812,298.4574,345.3135,336.6075,0.0001596,0.99489870,0.0000,03/03.4399/2018,2000,g 14.0,4.0
# From MPC114603
C/2018 R5 (Lemmon),e,103.7492,171.1160,178.0910,22.80676,0.0090492,0.84102782,9.1754,10/20.0/2021,2000,g 11.5,4.0
# From MPEC 2021-U31
C/2018 U1 (Lemmon),h,11/03.0729/2021,108.2984,75.4803,180.4632,1.001365,4.992958,2000,5.0,4.0
# From MPC114604
C/2018 V1 (Machholz-Fujikawa-Iwamoto),h,12/03.0568/2018,144.0581,128.8962,88.8909,1.000330,0.387469,2000,12.0,4.0
# From MPC115884
C/2018 V2 (ATLAS),e,159.1677,357.0824,318.9438,25.05168,0.0078605,0.90105817,8.3246,10/20.0/2021,2000,g 15.0,4.0
# From MPC114604
P/2018 VN2 (Leonard),e,18.2535,226.4866,138.7734,4.064293,0.1202892,0.47875184,148.1729,10/20.0/2021,2000,g 15.0,4.0
# From MPEC 2021-P47
A/2018 V3,e,164.9772,308.6596,3.5558,124.0066,0.0007137,0.98918362,0.0000,09/08.7365/2019,2000,g 15.7,2.0
# From MPC114604
C/2018 V4 (Africano),e,69.0075,78.3420,359.9261,203.8403,0.0003387,0.98432173,0.0000,03/01.3671/2019,2000,g 12.5,4.0
# From MPEC 2021-P47
P/2018 V5 (Trujillo-Sheppard),e,10.5879,171.2866,260.6604,8.954472,0.0367827,0.47487799,40.9466,10/20.0/2021,2000,g 12.5,4.0
# From MPEC 2021-P47
C/2018 W1 (Catalina),e,83.2996,233.6104,251.2401,21.68024,0.0097636,0.93724339,8.7125,10/20.0/2021,2000,g 15.5,2.0
# From MPEC 2021-P47
C/2018 W2 (Africano),h,09/05.5332/2019,116.6219,181.8296,157.9894,1.000395,1.456360,2000,9.5,4.0
# From MPC119996
C/2018 X2 (Fitzsimmons),e,23.0692,340.8329,162.0217,143.8035,0.0005715,0.98521770,0.0000,07/08.2612/2019,2000,g 12.0,4.0
# From MPC114604
C/2018 X3 (PANSTARRS),e,43.3789,78.8841,359.7341,12.37003,0.0226542,0.78218810,23.2067,10/20.0/2021,2000,g 14.5,4.0
# From MPC118842
C/2018 Y1 (Iwamoto),e,160.3986,147.5149,357.9886,137.3539,0.0006123,0.99065165,0.0000,02/06.8429/2019,2000,g 11.5,4.0
# From MPC114605
P/2018 Y2 (Africano),e,11.6824,297.2559,162.2912,7.457541,0.0483961,0.47866762,49.4870,10/20.0/2021,2000,g 11.5,4.0
# From MPC114605
P/2019 A1 (PANSTARRS),e,13.7446,312.2996,150.7444,5.120333,0.0850662,0.56842424,94.0364,10/20.0/2021,2000,g 16.0,4.0
# From MPEC 2021-P47
P/2019 A2 (ATLAS),e,14.8600,139.4714,323.9589,5.719085,0.0720633,0.38143162,76.7360,10/20.0/2021,2000,g 10.5,4.0
# From MPEC 2021-P47
P/2019 A3 (PANSTARRS),e,15.3713,31.2929,325.5343,3.146192,0.1766145,0.26585387,207.3596,10/20.0/2021,2000,g 16.0,4.0
# From MPC114605
P/2019 A4 (PANSTARRS),e,13.3110,119.2864,342.1017,2.616224,0.2329119,0.08746018,244.4794,10/20.0/2021,2000,g 15.0,4.0
# From MPEC 2021-P47
C/2019 A5 (PANSTARRS),e,67.5599,146.6286,355.9140,21.54723,0.0098541,0.70665778,8.5248,10/20.0/2021,2000,g  9.5,4.0
# From MPC114605
P/2019 A6 (Lemmon-PANSTARRS),e,33.2366,280.2510,156.1832,5.360386,0.0794164,0.63921399,91.1513,10/20.0/2021,2000,g 16.0,4.0
# From MPC115884
P/2019 A8 (PANSTARRS),e,2.5636,121.6272,54.1742,3.934479,0.1262912,0.34983668,131.5511,10/20.0/2021,2000,g 16.0,4.0
# From MPC118842
C/2019 A9 (PANSTARRS),e,84.1724,278.3840,237.9417,39.37683,0.0039888,0.96366073,3.2579,10/20.0/2021,2000,g 15.0,4.0
# From MPC114606
C/2019 B1 (Africano),e,123.3668,290.4299,174.8188,141.5262,0.0005854,0.98871916,0.0000,03/19.4705/2019,2000,g 16.0,4.0
# From MPC115885
P/2019 B2 (Groeller),e,16.9417,175.9026,0.3618,3.882813,0.1288203,0.37068928,111.2325,10/20.0/2021,2000,g 14.5,4.0
# From MPEC 2021-S45
C/2019 B3 (PANSTARRS),h,01/20.2886/2021,66.5356,358.4359,263.9316,1.001779,6.823286,2000,5.5,4.0
# From MPEC 2021-P47
C/2019 C1 (ATLAS),e,36.0353,212.3858,319.1638,696.1734,0.0000537,0.99054752,0.0000,05/05.2191/2020,2000,g 10.0,4.0
# From MPC118842
C/2019 D1 (Flewelling),e,34.0579,231.7034,70.5717,142.9353,0.0005768,0.98894258,0.0000,05/11.8303/2019,2000,g 13.0,4.0
# From MPEC 2021-P47
C/2019 E3 (ATLAS),h,11/13.4859/2023,84.2973,347.2531,280.6378,1.002633,10.314011,2000,2.5,4.0
# From MPEC 2021-TD0
